LATINSAT A              
1 27612U 02058H   21008.24053441 -.00000001  00000-0  18837-4 0  9990
2 27612  64.5566 332.5299 0014660  15.6797 344.4758 14.79544508973491
NIMIQ 2                 
1 27632U 02062A   21008.54656861 -.00000175  00000-0  00000-0 0  9996
2 27632   4.8091  74.4714 0007022 284.9812 214.4972  1.00270729 24278
CORIOLIS                
1 27640U 03001A   21008.53685149 -.00000002  00000-0  19690-4 0  9997
2 27640  98.7245  20.8199 0014463 163.4070 308.1748 14.19057741932525
SORCE                   
1 27651U 03004A   21008.79074821  .00000104  00000-0  24943-4 0  9998
2 27651  39.9951 264.8588 0021666  20.3254 339.8393 14.89216957974849
NAVSTAR 51 (USA 166)    
1 27663U 03005A   21008.50741453 -.00000045  00000-0  00000-0 0  9992
2 27663  55.8937 293.8657 0118786  35.7719 140.9076  2.00568678131482
USA 167                 
1 27691U 03008A   21008.63463306  .00000055  00000-0  00000-0 0  9998
2 27691   7.0315  57.7525 0002635 336.1881 172.8948  1.00274681 13046
NAVSTAR 52 (USA 168)    
1 27704U 03010A   21008.46368781 -.00000063  00000-0  00000-0 0  9998
2 27704  54.7613  44.6344 0243686 290.2201  70.2151  2.00556307130286
USA 169 (MILSTAR-2 4)   
1 27711U 03012A   21008.48821569 -.00000195  00000-0  00000-0 0  9994
2 27711   9.3518  43.5395 0002694 244.1931 148.4177  1.00272274 13045
GALAXY 12 (G-12)        
1 27715U 03013B   21008.63538302  .00000063  00000-0  00000-0 0  9999
2 27715   1.9841  90.7649 0001721 213.5907 263.7565  1.00271131 32184
ASIASAT 4               
1 27718U 03014A   21008.57230326  .00000159  00000-0  00000-0 0  9997
2 27718   0.0093 280.6271 0002096  33.7758  38.1512  1.00274845 25384
HELLAS-SAT 2            
1 27811U 03020A   21008.54560902 -.00000146  00000-0  00000-0 0  9998
2 27811   2.4027  90.0993 0002896 200.8397 278.5634  1.00271547 22938
THURAYA-2               
1 27825U 03026A   21008.81930687  .00000129  00000-0  00000+0 0  9999
2 27825   6.1298  33.5329 0005006 251.6957 162.2773  1.00272480 64432
OPTUS C1                
1 27831U 03028B   21008.58079378 -.00000147  00000-0  00000-0 0  9995
2 27831   1.9102  92.1507 0005456 192.9572 187.9765  1.00268936 33155
MOST                    
1 27843U 03031D   21008.86136418 -.00000008  00000-0  16617-4 0  9993
2 27843  98.7096  19.1583 0009351 216.4349 143.6192 14.20626148908769
CUTE-1 (CO-55)          
1 27844U 03031E   21008.50372954  .00000051  00000-0  42656-4 0  9991
2 27844  98.6816  19.1352 0009926 176.1159 184.0097 14.22280809909241
CUBESAT XI-IV (CO-57)   
1 27848U 03031J   21008.73102702  .00000045  00000-0  40041-4 0  9991
2 27848  98.6877  19.9268 0009580 188.2269 171.8753 14.21861852909142
GALAXY 23 (G-23)        
1 27854U 03034A   21008.63956822  .00000019  00000-0  00000+0 0  9997
2 27854   0.0523 269.8576 0003021  21.8753 285.9111  1.00271751 68637
SCISAT 1                
1 27858U 03036A   21008.58658372  .00000074  00000-0  15500-4 0  9993
2 27858  73.9331 140.1177 0009165 296.1027  63.9203 14.77323433937949
COSMOS 2400             
1 27868U 03037A   21008.45254700  .00000013  00000-0  22892-4 0  9993
2 27868  82.4704 134.9013 0022532  81.6923 278.6711 12.45141627790519
COSMOS 2401             
1 27869U 03037B   21008.75691626  .00000009  00000-0 -58050-5 0  9991
2 27869  82.4703 131.9503 0023253  78.7033 281.6659 12.45458878790750
USA 170                 
1 27875U 03040A   21008.41274847 -.00000271  00000-0  00000-0 0  9995
2 27875   6.2990  63.2206 0001138 217.2463 293.9989  1.00272213 13050
MOZHAYETS 4 (RS-22)     
1 27939U 03042A   21008.70485170  .00000131  00000-0  32146-4 0  9997
2 27939  98.1153 147.1672 0014102  67.9994 292.2713 14.66931196924107
GALAXY 13 (HORIZONS 1)  
1 27954U 03044A   21008.63618819  .00000054  00000-0  00000+0 0  9999
2 27954   0.0168 306.8302 0001775 251.9078  11.6528  1.00269174 63246
IRS-P6 (RESOURCESAT-1)  
1 28051U 03046A   21008.67842975  .00000003  00000-0  15845-4 0  9998
2 28051  98.4650  87.2922 0059051 136.9742 223.6084 14.34176531895802
DMSP 5D-3 F16 (USA 172) 
1 28054U 03048A   21008.84527815 -.00000068  00000-0 -12473-4 0  9992
2 28054  98.9365 353.4403 0007561   8.7790  51.7855 14.13648537888910
CHUANGXIN 1 (CX-1)      
1 28058U 03049B   21008.52739017  .00000013  00000-0  16349-4 0  9995
2 28058  98.7293 202.2681 0013826  62.9846 297.2755 14.47026495909017
YAMAL 202               
1 28089U 03053A   21008.59725277 -.00000075  00000-0  00000-0 0  9996
2 28089   1.3417  93.4311 0002634 194.8633 198.5282  1.00271740 62774
UFO 11 (USA 174)        
1 28117U 03057A   21008.57896883 -.00000100  00000-0  00000-0 0  9991
2 28117   6.2973  37.6958 0003923 298.0924  56.3122  1.00271164 62534
NAVSTAR 53 (USA 175)    
1 28129U 03058A   21008.05064752 -.00000042  00000-0  00000-0 0  9995
2 28129  53.4699 103.3364 0070521 298.5930  60.7071  2.00567548124950
USA 176 (DSP 22)        
1 28158U 04004A   21008.57341189 -.00000219  00000-0  00000-0 0  9994
2 28158   9.4214  38.1275 0000406 282.3238  81.6307  1.00274316 13025
ABS-4 (MOBISAT-1)       
1 28184U 04007A   21008.50504425  .00000046  00000-0  00000-0 0  9990
2 28184   1.0249  94.7331 0005007 196.9669  59.3454  1.00272579 32420
EUTELSAT 7A             
1 28187U 04008A   21008.47887341 -.00000217  00000-0  00000-0 0  9992
2 28187   0.8181  91.1216 0005275 187.1149 291.9025  0.99847071 61444
NAVSTAR 54 (USA 177)    
1 28190U 04009A   21007.80404042 -.00000064  00000-0  00000-0 0  9996
2 28190  56.2355 354.7310 0087435 101.5238  81.4655  2.00571104123104
SHIYAN 1 (SY-1)         
1 28220U 04012A   21008.86935795  .00000627  00000-0  55081-4 0  9992
2 28220  97.8696 346.0075 0015621 302.2270  57.7438 15.00200183911529
DIRECTV 7S              
1 28238U 04016A   21008.64090259  .00000007  00000-0  00000+0 0  9996
2 28238   0.0261  75.1913 0003594 281.2447 223.5982  1.00271215 61141
AMC-11 (GE-11)          
1 28252U 04017A   21008.63326605  .00000075  00000-0  00000+0 0  9994
2 28252   0.0195 340.7460 0002597 322.3936 262.1992  1.00270978 60798
FORMOSAT-2 (ROCSAT 2)   
1 28254U 04018A   21008.54723701 -.00000137  00000-0 -64364-4 0  9994
2 28254  98.7016  38.4965 0003197 119.9686 356.2437 14.00728710850754
INTELSAT 10-02          
1 28358U 04022A   21008.56445201 -.00000005  00000-0  00000-0 0  9998
2 28358   0.0564 263.4010 0002563  42.2218   4.9230  1.00272297 60693
APRIZESAT 2             
1 28366U 04025A   21008.39651860  .00000005  00000-0  14969-4 0  9993
2 28366  98.2403 257.0241 0108765 112.2497 249.0268 14.36724064866421
SAUDICOMSAT 1           
1 28369U 04025D   21008.43494869  .00000055  00000-0  24827-4 0  9994
2 28369  98.3675 324.2203 0033315 345.9882  14.0386 14.52591987875629
SAUDICOMSAT 2           
1 28370U 04025E   21008.42911669  .00000041  00000-0  23227-4 0  9995
2 28370  98.4601 321.7962 0058318 152.4732 207.9570 14.47519149872674
SAUDISAT 2              
1 28371U 04025F   21008.86655292  .00000075  00000-0  28581-4 0  9996
2 28371  98.3064 321.9602 0024594 280.8620  78.9862 14.54409331877035
APRIZESAT 1             
1 28372U 04025G   21008.84436290  .00000026  00000-0  18676-4 0  9990
2 28372  98.4204 323.1013 0047551  73.7562 286.8855 14.49654319874148
AURA                    
1 28376U 04026A   21008.58598894  .00000090  00000-0  30084-4 0  9993
2 28376  98.2143 314.3667 0001336  71.7029 288.4315 14.57116751876846
ANIK F2                 
1 28378U 04027A   21008.64530260 -.00000044  00000-0  00000+0 0  9996
2 28378   0.0163 318.3358 0000096  52.1054 219.1857  1.00271584 60448
COSMOS 2407             
1 28380U 04028A   21008.46644205  .00000050  00000-0  35259-4 0  9990
2 28380  82.9615 105.0743 0040371  46.6931 313.7575 13.76085650826961
SJ-6A                   
1 28413U 04035A   21008.89110021  .00000867  00000-0  86050-4 0  9997
2 28413  97.7473  32.3813 0012575  11.3146 348.8355 14.94246917889674
SJ-6B                   
1 28414U 04035B   21008.69538344  .00000252  00000-0  28739-4 0  9996
2 28414  97.7517  31.8614 0006385  13.7968 346.3384 14.94305707889585
COSMOS 2408             
1 28419U 04037A   21008.44748596  .00000015  00000-0  34300-4 0  9996
2 28419  82.4851 129.7524 0015093 302.4002  57.5613 12.45623069740841
COSMOS 2409             
1 28420U 04037B   21008.49168462  .00000018  00000-0  59456-4 0  9993
2 28420  82.4853 132.1081 0012824 311.6656  48.3324 12.45278219740678
AMC-15                  
1 28446U 04041A   21008.56312679 -.00000082  00000-0  00000-0 0  9994
2 28446   0.0210  44.5985 0002669 247.5197 273.8557  1.00270601 59415
JB-3 3 (ZY 2C)          
1 28470U 04044A   21008.77041768 -.00000464  00000-0 -29428-4 0  9999
2 28470  97.3082 249.0315 0043847 230.9479 128.7842 15.03005859888402
AMC-16                  
1 28472U 04048A   21008.54770269 -.00000200  00000-0  00000+0 0  9992
2 28472   0.0114  15.3045 0002617 277.9764 287.1871  1.00271565 58900
NAVSTAR 56 (USA 180)    
1 28474U 04045A   21008.41527833 -.00000062  00000-0  00000-0 0  9991
2 28474  55.0999  44.5811 0205318 270.4269 269.5624  2.00573404118601
SWIFT                   
1 28485U 04047A   21008.71820891  .00000964  00000-0  35188-4 0  9997
2 28485  20.5581  27.7472 0011274 132.6367 227.5019 15.04823136884450
NANOSAT-1               
1 28493U 04049B   21008.27281304  .00000086  00000-0  21056-4 0  9993
2 28493  98.1148 104.0995 0004964 156.7466 203.3967 14.73633923862518
COSMOS 2414             
1 28521U 05002A   21008.67873856  .00000052  00000-0  30453-4 0  9992
2 28521  82.9508 104.9666 0039083 228.5825 131.1982 13.87627638808775
NSS-10 (AMC-12)         
1 28526U 05003A   21008.48541612 -.00000246  00000-0  00000-0 0  9996
2 28526   1.5050  92.6884 0002820 202.0621 310.7845  1.00270739 33247
XTAR-EUR                
1 28542U 05005A   21007.62105887  .00000158  00000-0  00000-0 0  9992
2 28542   0.0129  57.3700 0002115 241.6659  60.9351  1.00273076 58271
